GLOBALSTAR M001         
1 25162U 98008A   25345.97265663 -.00000075  00000+0  16444-3 0  9998
2 25162  52.0002 175.7595 0000233 288.4064 248.7633 12.38223363265735
GLOBALSTAR M004         
1 25163U 98008B   25346.09665382 -.00000043  00000+0  33405-3 0  9996
2 25163  51.9995 231.3884 0003102 343.6824 162.5239 12.63411078284175
GLOBALSTAR M002         
1 25164U 98008C   25345.44318086 -.00000057  00000+0  38349-3 0  9998
2 25164  51.9976 155.7621 0002668 103.1646 256.9472 11.61514752204663
GLOBALSTAR M003         
1 25165U 98008D   25346.15760103 -.00000189  00000+0 -10648-2 0  9997
2 25165  51.9927  35.5970 0007668 291.3762 102.2671 12.12043003254804
GLOBALSTAR M014         
1 25306U 98023A   25345.55767035 -.00000096  00000+0 -34474-3 0  9996
2 25306  51.9852  74.9678 0000284   3.5117   9.8836 11.65483695211859
GLOBALSTAR M006         
1 25307U 98023B   25345.38838936 -.00000063  00000+0  26836-3 0  9993
2 25307  51.9912 134.4924 0004181  79.5697 293.7944 11.58178761237364
GLOBALSTAR M015         
1 25308U 98023C   25346.17599983 -.00000068  00000+0  12852-3 0  9996
2 25308  51.9814 239.1635 0013442  34.9716 134.7025 11.48862767214538
GLOBALSTAR M008         
1 25309U 98023D   25345.58706297 -.00000087  00000+0  69370-4 0  9998
2 25309  51.9988  43.7217 0002947 181.1616 330.4968 12.36076574259786
